{"type": "FeatureCollection", "features": [ {"type": "Feature", "properties": {"norad_id": 30630, "name": "FENGYUN 1C DEB", "group": "fengyun-1c-debris", "lat": -50.43070681861093, "lon": -173.35298229112817, "alt_km": 821.9165406355487, "timestamp": "2025-12-27T17:24:57.682966+00:00", "meta": {"OBJECT_NAME": "FENGYUN 1C DEB", "OBJECT_ID": "1999-025ANM", "EPOCH": "2025-12-27T11:09:55.217952", "MEAN_MOTION": 14.22430855, "ECCENTRICITY": 0.0025673, "INCLINATION": 99.1735, "RA_OF_ASC_NODE": 175.0995, "ARG_OF_PERICENTER": 33.1671, "MEAN_ANOMALY": 22.9329, "EPHEMERIS_TYPE": 0, "CLASSIFICATION_TYPE": "U", "NORAD_CAT_ID": 30630, "ELEMENT_SET_NO": 999, "REV_AT_EPOCH": 97422, "BSTAR": 0.00091042, "MEAN_MOTION_DOT": 1.988e-05, "MEAN_MOTION_DDOT": 0}, "tle": {"line1": "1 30630U 99025ANM 25361.46522243  .00001988  00000+0  91042-3 0  9996", "line2": "2 30630  99.1735 175.0995 0025673  33.1671  22.9329 14.22430855974223"}}, "geometry": {"type": "Point", "coordinates": [-173.35298229112817, -50.43070681861093]}}, {"type": "Feature", "properties": {"norad_id": 30632, "name": "FENGYUN 1C DEB", "group": "fengyun-1c-debris", "lat": 12.795345636547724, "lon": -43.86740594299431, "alt_km": 676.8139541111505, "timestamp": "2025-12-27T17:24:57.682977+00:00", "meta": {"OBJECT_NAME": "FENGYUN 1C DEB", "OBJECT_ID": "1999-025ANP", "EPOCH": "2025-12-27T07:05:37.906368", "MEAN_MOTION": 14.6326716, "ECCENTRICITY": 0.00132217, "INCLINATION": 98.8251, "RA_OF_ASC_NODE": 133.6507, "ARG_OF_PERICENTER": 126.1564, "MEAN_ANOMALY": 296.3748, "EPHEMERIS_TYPE": 0, "CLASSIFICATION_TYPE": "U", "NORAD_CAT_ID": 30632, "ELEMENT_SET_NO": 999, "REV_AT_EPOCH": 97904, "BSTAR": 0.0040885135, "MEAN_MOTION_DOT": 0.00021116, "MEAN_MOTION_DDOT": 0}, "tle": {"line1": "1 30632U 99025ANP 25361.29557762  .00021116  00000+0  40885-2 0  9996", "line2": "2 30632  98.8251 133.6507 0013221 126.1564 296.3748 14.63267160979042"}}, "geometry": {"type": "Point", "coordinates": [-43.86740594299431, 12.795345636547724]}}, {"type": "Feature", "properties": {"norad_id": 30633, "name": "FENGYUN 1C DEB", "group": "fengyun-1c-debris", "lat": 43.10877967613424, "lon": 53.6222744304528, "alt_km": 859.4006726433727, "timestamp": "2025-12-27T17:24:57.682987+00:00", "meta": {"OBJECT_NAME": "FENGYUN 1C DEB", "OBJECT_ID": "1999-025ANQ", "EPOCH": "2025-12-27T05:23:33.506304", "MEAN_MOTION": 14.0442693, "ECCENTRICITY": 0.01299929, "INCLINATION": 98.4206, "RA_OF_ASC_NODE": 225.1873, "ARG_OF_PERICENTER": 218.9378, "MEAN_ANOMALY": 267.2795, "EPHEMERIS_TYPE": 0, "CLASSIFICATION_TYPE": "U", "NORAD_CAT_ID": 30633, "ELEMENT_SET_NO": 999, "REV_AT_EPOCH": 96095, "BSTAR": 0.0010275261, "MEAN_MOTION_DOT": 1.725e-05, "MEAN_MOTION_DDOT": 0}, "tle": {"line1": "1 30633U 99025ANQ 25361.22469336  .00001725  00000+0  10275-2 0  9993", "line2": "2 30633  98.4206 225.1873 0129992 218.9378 267.2795 14.04426930960954"}}, "geometry": {"type": "Point", "coordinates": [53.6222744304528, 43.10877967613424]}}, {"type": "Feature", "properties": {"norad_id": 30634, "name": "FENGYUN 1C DEB", "group": "fengyun-1c-debris", "lat": 71.11684808896598, "lon": -43.57654866305627, "alt_km": 769.621971073343, "timestamp": "2025-12-27T17:24:57.682997+00:00", "meta": {"OBJECT_NAME": "FENGYUN 1C DEB", "OBJECT_ID": "1999-025ANR", "EPOCH": "2025-12-26T11:00:38.414016", "MEAN_MOTION": 14.09814556, "ECCENTRICITY": 0.0121347, "INCLINATION": 99.2943, "RA_OF_ASC_NODE": 343.7197, "ARG_OF_PERICENTER": 58.5929, "MEAN_ANOMALY": 68.1088, "EPHEMERIS_TYPE": 0, "CLASSIFICATION_TYPE": "U", "NORAD_CAT_ID": 30634, "ELEMENT_SET_NO": 999, "REV_AT_EPOCH": 95810, "BSTAR": 0.0022379, "MEAN_MOTION_DOT": 4.168e-05, "MEAN_MOTION_DDOT": 0}, "tle": {"line1": "1 30634U 99025ANR 25360.45877794  .00004168  00000+0  22379-2 0  9991", "line2": "2 30634  99.2943 343.7197 0121347  58.5929  68.1088 14.09814556958101"}}, "geometry": {"type": "Point", "coordinates": [-43.57654866305627, 71.11684808896598]}}, {"type": "Feature", "properties": {"norad_id": 30639, "name": "FENGYUN 1C DEB", "group": "fengyun-1c-debris", "lat": -60.42664433429557, "lon": -81.93909176703572, "alt_km": 741.0155769767789, "timestamp": "2025-12-27T17:24:57.683007+00:00", "meta": {"OBJECT_NAME": "FENGYUN 1C DEB", "OBJECT_ID": "1999-025ANW", "EPOCH": "2025-12-27T06:13:51.213792", "MEAN_MOTION": 14.3256851, "ECCENTRICITY": 0.00688535, "INCLINATION": 99.0172, "RA_OF_ASC_NODE": 113.8265, "ARG_OF_PERICENTER": 239.4556, "MEAN_ANOMALY": 119.982, "EPHEMERIS_TYPE": 0, "CLASSIFICATION_TYPE": "U", "NORAD_CAT_ID": 30639, "ELEMENT_SET_NO": 999, "REV_AT_EPOCH": 96927, "BSTAR": 0.0036020732, "MEAN_MOTION_DOT": 0.00010001, "MEAN_MOTION_DDOT": 0}, "tle": {"line1": "1 30639U 99025ANW 25361.25962053  .00010001  00000+0  36021-2 0  9990", "line2": "2 30639  99.0172 113.8265 0068853 239.4556 119.9820 14.32568510969279"}}, "geometry": {"type": "Point", "coordinates": [-81.93909176703572, -60.42664433429557]}}, {"type": "Feature", "properties": {"norad_id": 30640, "name": "FENGYUN 1C DEB", "group": "fengyun-1c-debris", "lat": 38.86821023124511, "lon": -99.46719090393691, "alt_km": 831.9660542281545, "timestamp": "2025-12-27T17:24:57.683017+00:00", "meta": {"OBJECT_NAME": "FENGYUN 1C DEB", "OBJECT_ID": "1999-025ANX", "EPOCH": "2025-12-27T03:29:08.196000", "MEAN_MOTION": 14.14706662, "ECCENTRICITY": 0.00798664, "INCLINATION": 99.0559, "RA_OF_ASC_NODE": 72.5588, "ARG_OF_PERICENTER": 59.9557, "MEAN_ANOMALY": 5.119, "EPHEMERIS_TYPE": 0, "CLASSIFICATION_TYPE": "U", "NORAD_CAT_ID": 30640, "ELEMENT_SET_NO": 999, "REV_AT_EPOCH": 96649, "BSTAR": 0.0015349522, "MEAN_MOTION_DOT": 3.002e-05, "MEAN_MOTION_DDOT": 0}, "tle": {"line1": "1 30640U 99025ANX 25361.14523375  .00003002  00000+0  15350-2 0  9995", "line2": "2 30640  99.0559  72.5588 0079866  59.9557   5.1190 14.14706662966490"}}, "geometry": {"type": "Point", "coordinates": [-99.46719090393691, 38.86821023124511]}}, {"type": "Feature", "properties": {"norad_id": 30641, "name": "FENGYUN 1C DEB", "group": "fengyun-1c-debris", "lat": -45.969006510995065, "lon": -52.855813912080635, "alt_km": 694.8512317625173, "timestamp": "2025-12-27T17:24:57.683033+00:00", "meta": {"OBJECT_NAME": "FENGYUN 1C DEB", "OBJECT_ID": "1999-025ANY", "EPOCH": "2025-12-26T19:01:43.960224", "MEAN_MOTION": 14.79081, "ECCENTRICITY": 0.01363595, "INCLINATION": 98.9436, "RA_OF_ASC_NODE": 296.7322, "ARG_OF_PERICENTER": 82.7391, "MEAN_ANOMALY": 307.9685, "EPHEMERIS_TYPE": 0, "CLASSIFICATION_TYPE": "U", "NORAD_CAT_ID": 30641, "ELEMENT_SET_NO": 999, "REV_AT_EPOCH": 740, "BSTAR": 0.00063066861, "MEAN_MOTION_DOT": 5.394e-05, "MEAN_MOTION_DDOT": 0}, "tle": {"line1": "1 30641U 99025ANY 25360.79286991  .00005394  00000+0  63067-3 0  9991", "line2": "2 30641  98.9436 296.7322 0136359  82.7391 307.9685 14.79081000  7402"}}, "geometry": {"type": "Point", "coordinates": [-52.855813912080635, -45.969006510995065]}}, {"type": "Feature", "properties": {"norad_id": 30646, "name": "FENGYUN 1C DEB", "group": "fengyun-1c-debris", "lat": -79.76696218457741, "lon": 79.1804098882715, "alt_km": 858.1823443659205, "timestamp": "2025-12-27T17:24:57.683044+00:00", "meta": {"OBJECT_NAME": "FENGYUN 1C DEB", "OBJECT_ID": "1999-025APD", "EPOCH": "2025-12-26T21:22:19.661376", "MEAN_MOTION": 14.09685882, "ECCENTRICITY": 0.0047542, "INCLINATION": 98.6513, "RA_OF_ASC_NODE": 20.8804, "ARG_OF_PERICENTER": 351.9532, "MEAN_ANOMALY": 8.0871, "EPHEMERIS_TYPE": 0, "CLASSIFICATION_TYPE": "U", "NORAD_CAT_ID": 30646, "ELEMENT_SET_NO": 999, "REV_AT_EPOCH": 96804, "BSTAR": 0.00069993, "MEAN_MOTION_DOT": 1.198e-05, "MEAN_MOTION_DDOT": 0}, "tle": {"line1": "1 30646U 99025APD 25360.89050534  .00001198  00000+0  69993-3 0  9991", "line2": "2 30646  98.6513  20.8804 0047542 351.9532   8.0871 14.09685882968047"}}, "geometry": {"type": "Point", "coordinates": [79.1804098882715, -79.76696218457741]}}, {"type": "Feature", "properties": {"norad_id": 30647, "name": "FENGYUN 1C DEB", "group": "fengyun-1c-debris", "lat": 23.963736749663774, "lon": -69.10076744501471, "alt_km": 707.7769228886582, "timestamp": "2025-12-27T17:24:57.683054+00:00", "meta": {"OBJECT_NAME": "FENGYUN 1C DEB", "OBJECT_ID": "1999-025APE", "EPOCH": "2025-12-26T18:29:42.229824", "MEAN_MOTION": 14.56733309, "ECCENTRICITY": 0.00302537, "INCLINATION": 98.99, "RA_OF_ASC_NODE": 293.9048, "ARG_OF_PERICENTER": 130.1072, "MEAN_ANOMALY": 289.0185, "EPHEMERIS_TYPE": 0, "CLASSIFICATION_TYPE": "U", "NORAD_CAT_ID": 30647, "ELEMENT_SET_NO": 999, "REV_AT_EPOCH": 98193, "BSTAR": 0.0023538663, "MEAN_MOTION_DOT": 0.00010549, "MEAN_MOTION_DDOT": 0}, "tle": {"line1": "1 30647U 99025APE 25360.77062766  .00010549  00000+0  23539-2 0  9994", "line2": "2 30647  98.9900 293.9048 0030253 130.1072 289.0185 14.56733309981933"}}, "geometry": {"type": "Point", "coordinates": [-69.10076744501471, 23.963736749663774]}}, {"type": "Feature", "properties": {"norad_id": 30648, "name": "FENGYUN 1C DEB", "group": "fengyun-1c-debris", "lat": 77.00630488725498, "lon": 55.49884282927851, "alt_km": 700.1293574896445, "timestamp": "2025-12-27T17:24:57.683064+00:00", "meta": {"OBJECT_NAME": "FENGYUN 1C DEB", "OBJECT_ID": "1999-025APF", "EPOCH": "2025-12-26T18:31:49.929888", "MEAN_MOTION": 14.48323113, "ECCENTRICITY": 0.00333489, "INCLINATION": 98.64, "RA_OF_ASC_NODE": 95.7423, "ARG_OF_PERICENTER": 85.9508, "MEAN_ANOMALY": 65.369, "EPHEMERIS_TYPE": 0, "CLASSIFICATION_TYPE": "U", "NORAD_CAT_ID": 30648, "ELEMENT_SET_NO": 999, "REV_AT_EPOCH": 98069, "BSTAR": 0.0020229608, "MEAN_MOTION_DOT": 7.577e-05, "MEAN_MOTION_DDOT": 0}, "tle": {"line1": "1 30648U 99025APF 25360.77210567  .00007577  00000+0  20230-2 0  9991", "line2": "2 30648  98.6400  95.7423 0033348  85.9508  65.3690 14.48323113980697"}}, "geometry": {"type": "Point", "coordinates": [55.49884282927851, 77.00630488725498]}}]}